[{"OBJECT_NAME":"STARLINK-37183","OBJECT_ID":"2026-059AE","EPOCH":"2026-04-02T06:00:02.999808","MEAN_MOTION":15.80822391,"ECCENTRICITY":6.02e-5,"INCLINATION":53.1592,"RA_OF_ASC_NODE":244.5675,"ARG_OF_PERICENTER":68.0103,"MEAN_ANOMALY":276.5362,"EPHEMERIS_TYPE":0,"CLASSIFICATION_TYPE":"U","NORAD_CAT_ID":68349,"ELEMENT_SET_NO":999,"REV_AT_EPOCH":282,"BSTAR":0.00032414735,"MEAN_MOTION_DOT":0.000636,"MEAN_MOTION_DDOT":0},{"OBJECT_NAME":"CENTISPACE-1 OBJECT A","OBJECT_ID":"2026-060A","EPOCH":"2026-03-31T22:07:19.160256","MEAN_MOTION":14.74887229,"ECCENTRICITY":0.00130111,"INCLINATION":54.9828,"RA_OF_ASC_NODE":350.9279,"ARG_OF_PERICENTER":316.4493,"MEAN_ANOMALY":43.5478,"EPHEMERIS_TYPE":0,"CLASSIFICATION_TYPE":"U","NORAD_CAT_ID":68350,"ELEMENT_SET_NO":999,"REV_AT_EPOCH":137,"BSTAR":0.00033707763,"MEAN_MOTION_DOT":2.073e-5,"MEAN_MOTION_DDOT":0},{"OBJECT_NAME":"CENTISPACE-1 OBJECT B","OBJECT_ID":"2026-060B","EPOCH":"2026-04-02T06:38:48.849792","MEAN_MOTION":14.74929469,"ECCENTRICITY":0.00133394,"INCLINATION":54.9823,"RA_OF_ASC_NODE":345.3968,"ARG_OF_PERICENTER":320.2899,"MEAN_ANOMALY":39.7122,"EPHEMERIS_TYPE":0,"CLASSIFICATION_TYPE":"U","NORAD_CAT_ID":68351,"ELEMENT_SET_NO":999,"REV_AT_EPOCH":157,"BSTAR":0.00026595819,"MEAN_MOTION_DOT":1.593e-5,"MEAN_MOTION_DDOT":0},{"OBJECT_NAME":"CENTISPACE-1 OBJECT C","OBJECT_ID":"2026-060C","EPOCH":"2026-04-01T17:36:19.698912","MEAN_MOTION":14.75102705,"ECCENTRICITY":0.00126221,"INCLINATION":54.9809,"RA_OF_ASC_NODE":347.6015,"ARG_OF_PERICENTER":325.0085,"MEAN_ANOMALY":35.0084,"EPHEMERIS_TYPE":0,"CLASSIFICATION_TYPE":"U","NORAD_CAT_ID":68352,"ELEMENT_SET_NO":999,"REV_AT_EPOCH":149,"BSTAR":3.8509091e-5,"MEAN_MOTION_DOT":5.2e-7,"MEAN_MOTION_DDOT":0},{"OBJECT_NAME":"CENTISPACE-1 OBJECT D","OBJECT_ID":"2026-060D","EPOCH":"2026-03-31T12:19:36.304032","MEAN_MOTION":14.75128916,"ECCENTRICITY":0.00132122,"INCLINATION":54.9893,"RA_OF_ASC_NODE":352.5746,"ARG_OF_PERICENTER":325.1986,"MEAN_ANOMALY":34.8148,"EPHEMERIS_TYPE":0,"CLASSIFICATION_TYPE":"U","NORAD_CAT_ID":68353,"ELEMENT_SET_NO":999,"REV_AT_EPOCH":131,"BSTAR":4.3489466e-5,"MEAN_MOTION_DOT":8.6e-7,"MEAN_MOTION_DDOT":0},{"OBJECT_NAME":"CENTISPACE-1 OBJECT E","OBJECT_ID":"2026-060E","EPOCH":"2026-04-01T17:35:21.186240","MEAN_MOTION":14.75203346,"ECCENTRICITY":0.00135588,"INCLINATION":54.9768,"RA_OF_ASC_NODE":347.5925,"ARG_OF_PERICENTER":326.041,"MEAN_ANOMALY":33.972,"EPHEMERIS_TYPE":0,"CLASSIFICATION_TYPE":"U","NORAD_CAT_ID":68354,"ELEMENT_SET_NO":999,"REV_AT_EPOCH":149,"BSTAR":3.8729313e-5,"MEAN_MOTION_DOT":5.4e-7,"MEAN_MOTION_DDOT":0},{"OBJECT_NAME":"CENTISPACE-1 OBJECT F","OBJECT_ID":"2026-060F","EPOCH":"2026-04-01T12:42:18.852768","MEAN_MOTION":14.75237979,"ECCENTRICITY":0.00139241,"INCLINATION":54.9764,"RA_OF_ASC_NODE":348.4206,"ARG_OF_PERICENTER":323.7943,"MEAN_ANOMALY":36.2113,"EPHEMERIS_TYPE":0,"CLASSIFICATION_TYPE":"U","NORAD_CAT_ID":68355,"ELEMENT_SET_NO":999,"REV_AT_EPOCH":146,"BSTAR":3.8992472e-5,"MEAN_MOTION_DOT":5.6e-7,"MEAN_MOTION_DDOT":0},{"OBJECT_NAME":"CENTISPACE-1 OBJECT G","OBJECT_ID":"2026-060G","EPOCH":"2026-04-02T00:04:31.532736","MEAN_MOTION":14.75310904,"ECCENTRICITY":0.00142424,"INCLINATION":54.988,"RA_OF_ASC_NODE":346.4927,"ARG_OF_PERICENTER":325.6905,"MEAN_ANOMALY":34.3173,"EPHEMERIS_TYPE":0,"CLASSIFICATION_TYPE":"U","NORAD_CAT_ID":68356,"ELEMENT_SET_NO":999,"REV_AT_EPOCH":153,"BSTAR":3.8325405e-5,"MEAN_MOTION_DOT":5.1e-7,"MEAN_MOTION_DDOT":0},{"OBJECT_NAME":"CENTISPACE-1 OBJECT H","OBJECT_ID":"2026-060H","EPOCH":"2026-03-31T12:17:09.150144","MEAN_MOTION":14.75426695,"ECCENTRICITY":0.0014896,"INCLINATION":54.9825,"RA_OF_ASC_NODE":352.5691,"ARG_OF_PERICENTER":321.7973,"MEAN_ANOMALY":38.197,"EPHEMERIS_TYPE":0,"CLASSIFICATION_TYPE":"U","NORAD_CAT_ID":68357,"ELEMENT_SET_NO":999,"REV_AT_EPOCH":131,"BSTAR":0.00033642377,"MEAN_MOTION_DOT":2.097e-5,"MEAN_MOTION_DDOT":0},{"OBJECT_NAME":"CENTISPACE-1 OBJECT J","OBJECT_ID":"2026-060J","EPOCH":"2026-03-31T22:02:32.676000","MEAN_MOTION":14.75410591,"ECCENTRICITY":0.00147259,"INCLINATION":54.9876,"RA_OF_ASC_NODE":350.9118,"ARG_OF_PERICENTER":324.9275,"MEAN_ANOMALY":35.0754,"EPHEMERIS_TYPE":0,"CLASSIFICATION_TYPE":"U","NORAD_CAT_ID":68358,"ELEMENT_SET_NO":999,"REV_AT_EPOCH":137,"BSTAR":4.4082868e-5,"MEAN_MOTION_DOT":9.1e-7,"MEAN_MOTION_DDOT":0},{"OBJECT_NAME":"CENTISPACE-1 OBJECT K","OBJECT_ID":"2026-060K","EPOCH":"2026-04-01T17:32:29.893920","MEAN_MOTION":14.75493204,"ECCENTRICITY":0.00151156,"INCLINATION":54.9775,"RA_OF_ASC_NODE":347.5897,"ARG_OF_PERICENTER":326.6312,"MEAN_ANOMALY":33.3734,"EPHEMERIS_TYPE":0,"CLASSIFICATION_TYPE":"U","NORAD_CAT_ID":68359,"ELEMENT_SET_NO":999,"REV_AT_EPOCH":149,"BSTAR":3.7852544e-5,"MEAN_MOTION_DOT":4.9e-7,"MEAN_MOTION_DDOT":0},{"OBJECT_NAME":"RASSVET-3 1","OBJECT_ID":"2026-061A","EPOCH":"2026-03-31T15:46:09.658272","MEAN_MOTION":15.89002217,"ECCENTRICITY":0.0026761,"INCLINATION":82.2962,"RA_OF_ASC_NODE":99.7107,"ARG_OF_PERICENTER":45.1037,"MEAN_ANOMALY":315.24,"EPHEMERIS_TYPE":0,"CLASSIFICATION_TYPE":"U","NORAD_CAT_ID":68360,"ELEMENT_SET_NO":999,"REV_AT_EPOCH":126,"BSTAR":0.00043734,"MEAN_MOTION_DOT":0.00127932,"MEAN_MOTION_DDOT":4.5424e-6},{"OBJECT_NAME":"RASSVET-3 2","OBJECT_ID":"2026-061B","EPOCH":"2026-03-31T15:47:00.562560","MEAN_MOTION":15.88526069,"ECCENTRICITY":0.0027321,"INCLINATION":82.2971,"RA_OF_ASC_NODE":99.7121,"ARG_OF_PERICENTER":44.8164,"MEAN_ANOMALY":315.5307,"EPHEMERIS_TYPE":0,"CLASSIFICATION_TYPE":"U","NORAD_CAT_ID":68361,"ELEMENT_SET_NO":999,"REV_AT_EPOCH":126,"BSTAR":0.00023031351,"MEAN_MOTION_DOT":0.00066037,"MEAN_MOTION_DDOT":3.6253e-7},{"OBJECT_NAME":"RASSVET-3 3","OBJECT_ID":"2026-061C","EPOCH":"2026-03-31T15:46:50.210112","MEAN_MOTION":15.88549972,"ECCENTRICITY":0.0027163,"INCLINATION":82.297,"RA_OF_ASC_NODE":99.7116,"ARG_OF_PERICENTER":44.7138,"MEAN_ANOMALY":315.6316,"EPHEMERIS_TYPE":0,"CLASSIFICATION_TYPE":"U","NORAD_CAT_ID":68362,"ELEMENT_SET_NO":999,"REV_AT_EPOCH":126,"BSTAR":0.00021986,"MEAN_MOTION_DOT":0.00063107,"MEAN_MOTION_DDOT":2.3369e-7},{"OBJECT_NAME":"RASSVET-3 4","OBJECT_ID":"2026-061D","EPOCH":"2026-03-31T15:46:40.238688","MEAN_MOTION":15.88567095,"ECCENTRICITY":0.00271898,"INCLINATION":82.2971,"RA_OF_ASC_NODE":99.7117,"ARG_OF_PERICENTER":44.5884,"MEAN_ANOMALY":315.7567,"EPHEMERIS_TYPE":0,"CLASSIFICATION_TYPE":"U","NORAD_CAT_ID":68363,"ELEMENT_SET_NO":999,"REV_AT_EPOCH":126,"BSTAR":0.00021555777,"MEAN_MOTION_DOT":0.00061936,"MEAN_MOTION_DDOT":1.8393e-7},{"OBJECT_NAME":"RASSVET-3 5","OBJECT_ID":"2026-061E","EPOCH":"2026-03-31T15:46:33.024288","MEAN_MOTION":15.88592069,"ECCENTRICITY":0.0027131,"INCLINATION":82.297,"RA_OF_ASC_NODE":99.7112,"ARG_OF_PERICENTER":44.667,"MEAN_ANOMALY":315.6779,"EPHEMERIS_TYPE":0,"CLASSIFICATION_TYPE":"U","NORAD_CAT_ID":68364,"ELEMENT_SET_NO":999,"REV_AT_EPOCH":126,"BSTAR":0.0002303,"MEAN_MOTION_DOT":0.0006622,"MEAN_MOTION_DDOT":3.7193e-7},{"OBJECT_NAME":"RASSVET-3 6","OBJECT_ID":"2026-061F","EPOCH":"2026-03-31T15:46:21.239328","MEAN_MOTION":15.88687592,"ECCENTRICITY":0.0026941,"INCLINATION":82.2971,"RA_OF_ASC_NODE":99.7112,"ARG_OF_PERICENTER":44.7847,"MEAN_ANOMALY":315.5592,"EPHEMERIS_TYPE":0,"CLASSIFICATION_TYPE":"U","NORAD_CAT_ID":68365,"ELEMENT_SET_NO":999,"REV_AT_EPOCH":126,"BSTAR":0.00026705,"MEAN_MOTION_DOT":0.00077066,"MEAN_MOTION_DDOT":9.066e-7},{"OBJECT_NAME":"RASSVET-3 7","OBJECT_ID":"2026-061G","EPOCH":"2026-03-31T15:46:19.614144","MEAN_MOTION":15.88611878,"ECCENTRICITY":0.00269254,"INCLINATION":82.297,"RA_OF_ASC_NODE":99.7112,"ARG_OF_PERICENTER":44.6743,"MEAN_ANOMALY":315.6691,"EPHEMERIS_TYPE":0,"CLASSIFICATION_TYPE":"U","NORAD_CAT_ID":68366,"ELEMENT_SET_NO":999,"REV_AT_EPOCH":126,"BSTAR":0.00021483375,"MEAN_MOTION_DOT":0.0006183,"MEAN_MOTION_DDOT":1.80098e-7},{"OBJECT_NAME":"RASSVET-3 8","OBJECT_ID":"2026-061H","EPOCH":"2026-03-31T15:46:24.114720","MEAN_MOTION":15.88599119,"ECCENTRICITY":0.00269289,"INCLINATION":82.297,"RA_OF_ASC_NODE":99.7109,"ARG_OF_PERICENTER":44.614,"MEAN_ANOMALY":315.7292,"EPHEMERIS_TYPE":0,"CLASSIFICATION_TYPE":"U","NORAD_CAT_ID":68367,"ELEMENT_SET_NO":999,"REV_AT_EPOCH":126,"BSTAR":0.0002200002,"MEAN_MOTION_DOT":0.00063268,"MEAN_MOTION_DDOT":2.41454e-7},{"OBJECT_NAME":"RASSVET-3 9","OBJECT_ID":"2026-061J","EPOCH":"2026-03-31T15:46:03.215424","MEAN_MOTION":15.8883841,"ECCENTRICITY":0.0026602,"INCLINATION":82.2968,"RA_OF_ASC_NODE":99.7106,"ARG_OF_PERICENTER":44.7263,"MEAN_ANOMALY":315.6146,"EPHEMERIS_TYPE":0,"CLASSIFICATION_TYPE":"U","NORAD_CAT_ID":68368,"ELEMENT_SET_NO":999,"REV_AT_EPOCH":126,"BSTAR":0.00040633,"MEAN_MOTION_DOT":0.00117868,"MEAN_MOTION_DDOT":3.668e-6},{"OBJECT_NAME":"RASSVET-3 10","OBJECT_ID":"2026-061K","EPOCH":"2026-03-31T15:46:05.226816","MEAN_MOTION":15.88648903,"ECCENTRICITY":0.0026776,"INCLINATION":82.2971,"RA_OF_ASC_NODE":99.7109,"ARG_OF_PERICENTER":44.5811,"MEAN_ANOMALY":315.7607,"EPHEMERIS_TYPE":0,"CLASSIFICATION_TYPE":"U","NORAD_CAT_ID":68369,"ELEMENT_SET_NO":999,"REV_AT_EPOCH":126,"BSTAR":0.00022598,"MEAN_MOTION_DOT":0.00065118,"MEAN_MOTION_DDOT":3.234e-7},{"OBJECT_NAME":"RASSVET-3 11","OBJECT_ID":"2026-061L","EPOCH":"2026-03-31T15:45:45.048960","MEAN_MOTION":15.88690838,"ECCENTRICITY":0.0026563,"INCLINATION":82.297,"RA_OF_ASC_NODE":99.7104,"ARG_OF_PERICENTER":44.4425,"MEAN_ANOMALY":315.897,"EPHEMERIS_TYPE":0,"CLASSIFICATION_TYPE":"U","NORAD_CAT_ID":68370,"ELEMENT_SET_NO":999,"REV_AT_EPOCH":126,"BSTAR":0.00022715,"MEAN_MOTION_DOT":0.00065557,"MEAN_MOTION_DDOT":3.438e-7},{"OBJECT_NAME":"RASSVET-3 12","OBJECT_ID":"2026-061M","EPOCH":"2026-03-31T15:45:33.284736","MEAN_MOTION":15.88746119,"ECCENTRICITY":0.00265052,"INCLINATION":82.297,"RA_OF_ASC_NODE":99.7103,"ARG_OF_PERICENTER":44.4421,"MEAN_ANOMALY":315.8971,"EPHEMERIS_TYPE":0,"CLASSIFICATION_TYPE":"U","NORAD_CAT_ID":68371,"ELEMENT_SET_NO":999,"REV_AT_EPOCH":126,"BSTAR":0.00022898688,"MEAN_MOTION_DOT":0.00066259,"MEAN_MOTION_DDOT":3.76317e-7}]
